[{"line1":"1 30895U 99025AYH 22221.10044678  .00000505  00000-0  17161-3 0  9998","line2":"2 30895  98.8835 261.4226 0231527  90.3751 292.9512 14.27024865803455"},{"line1":"1 30898U 99025AYL 22221.00882102  .00002001  00000-0  40302-3 0  9998","line2":"2 30898  99.0304 323.2349 0126216 354.2447   5.7292 14.57930070483059"},{"line1":"1 30899U 99025AYM 22221.73957385  .00000593  00000-0  31812-3 0  9995","line2":"2 30899  99.2464  44.5377 0038485 168.5461 253.6873 14.16703468795122"},{"line1":"1 30900U 99025AYN 22220.93634959  .00002059  00000-0  10695-2 0  9992","line2":"2 30900  99.3141 108.1653 0076739 333.5637  26.1628 14.14423669793225"},{"line1":"1 30902U 99025AYQ 22216.16275318  .00000664  00000-0  34853-3 0  9997","line2":"2 30902 100.2335 338.1641 0116841  47.2665 313.8267 14.14940795794742"},{"line1":"1 30903U 99025AYR 22221.27634700  .00000097  00000-0  99570-4 0  9998","line2":"2 30903  99.5194  56.6694 0097026 164.5877 195.8275 13.96762849516488"},{"line1":"1 30905U 99025AYT 22221.03386614  .00001266  00000-0  76431-3 0  9991","line2":"2 30905  98.9674 286.4550 0065679 294.8906  64.5445 14.07406318788828"},{"line1":"1 30906U 99025AYU 22218.65189470  .00000700  00000-0  40550-3 0  9992","line2":"2 30906  99.0338 166.0371 0087164  99.9298 261.1724 14.10266703467817"},{"line1":"1 30907U 99025AYV 22220.87781854  .00000753  00000-0  46710-3 0  9996","line2":"2 30907  99.9318  96.9274 0060146 234.5884 124.9656 14.07886070434508"},{"line1":"1 30912U 99025AZA 22221.40368019  .00001647  00000-0  36606-3 0  9992","line2":"2 30912  98.9818 288.3775 0106938 272.5696  86.3260 14.55126302814832"},{"line1":"1 30913U 99025AZB 22221.39766161  .00000177  00000-0  14424-3 0  9992","line2":"2 30913  98.8775 271.3653 0046422 354.7059   5.3610 14.01454481787919"},{"line1":"1 30914U 99025AZC 22218.67425197 -.00000142  00000-0 -16223-3 0  9994","line2":"2 30914  99.9765 170.6071 0528344 270.2100  83.8501 13.02316258431053"},{"line1":"1 30915U 99025AZD 22221.83699090  .00001302  00000-0  70672-3 0  9997","line2":"2 30915  99.0157 267.8344 0060538  50.2015 310.4464 14.13242560792457"},{"line1":"1 30916U 99025AZE 22221.09403626  .00000313  00000-0  22719-3 0  9994","line2":"2 30916  99.1446 264.8252 0075193  53.5395 339.2638 14.02437762786852"},{"line1":"1 30918U 99025AZG 22221.56704707  .00000797  00000-0  60162-3 0  9992","line2":"2 30918  98.3679  72.4808 0168244 284.5832 100.2368 13.90330366780493"},{"line1":"1 30919U 99025AZH 22220.24219122  .00003403  00000-0  12270-2 0  9992","line2":"2 30919  98.7844 327.1268 0053130  78.2616 282.4522 14.33524914800239"},{"line1":"1 30920U 99025AZJ 22221.19783744  .00003099  00000-0  21499-2 0  9999","line2":"2 30920  98.9210   9.0076 0150250 261.2234  97.1887 13.94348390779568"},{"line1":"1 30921U 99025AZK 22221.84479236  .00001396  00000-0  69607-3 0  9992","line2":"2 30921  98.9116 281.2446 0020628 324.2252  99.7358 14.18478661794520"},{"line1":"1 30922U 99025AZL 22221.60019404  .00000505  00000-0  29470-3 0  9999","line2":"2 30922  98.7468 253.5800 0013081 306.2053 206.4423 14.12874275792959"},{"line1":"1 30923U 99025AZM 22221.06974168  .00003843  00000-0  15276-2 0  9993","line2":"2 30923  98.8925 270.8247 0032772 135.1365 225.2473 14.29010755795993"},{"line1":"1 30924U 99025AZN 22221.52181250  .00003309  00000-0  13211-2 0  9991","line2":"2 30924  98.9687 320.2293 0052356 283.1062 205.9751 14.28444934795745"},{"line1":"1 30925U 99025AZP 22219.19386340  .00001559  00000-0  73368-3 0  9994","line2":"2 30925  98.8661 312.2985 0043920 203.1577 217.8280 14.20927490795863"},{"line1":"1 30926U 99025AZQ 22221.16225141  .00001144  00000-0  13114-3 0  9999","line2":"2 30926  98.8529  22.6384 0205511 292.7032  65.2566 14.74475647826901"},{"line1":"1 30927U 99025AZR 22221.35907741  .00001761  00000-0  11673-2 0  9996","line2":"2 30927  99.2661 249.0405 0117963 139.3107 221.6943 13.99473276785481"},{"line1":"1 30928U 99025AZS 22221.56216529  .00000825  00000-0  12432-2 0  9991","line2":"2 30928  98.8782 119.3889 0461557 119.6762 359.8380 13.18935537742313"},{"line1":"1 30930U 99025AZU 22221.43381675  .00000595  00000-0  21716-3 0  9995","line2":"2 30930  98.3770 281.8014 0117584 154.5191 219.8135 14.32744008808184"},{"line1":"1 30931U 99025AZV 22221.03669914  .00000579  00000-0  42452-3 0  9999","line2":"2 30931  99.2945 252.6897 0095802 148.1059 242.5392 13.97842202788375"},{"line1":"1 30932U 99025AZW 22220.20700348  .00001639  00000-0  95118-3 0  9990","line2":"2 30932  98.9020 136.7932 0072675 169.2587 191.0155 14.08844139790878"},{"line1":"1 30933U 99025AZX 22221.31302521  .00002550  00000-0  15813-2 0  9991","line2":"2 30933  99.0754 165.2938 0113906 182.9332 331.5421 14.02867836785808"},{"line1":"1 30934U 99025AZY 22221.51295009  .00000687  00000-0  90407-3 0  9998","line2":"2 30934  98.7436 237.3091 0355124 296.9404  59.5864 13.41110519753061"},{"line1":"1 30936U 99025BAA 22221.09039618  .00000499  00000-0  25543-3 0  9995","line2":"2 30936  98.7189 261.2062 0048931 222.0223 164.9764 14.19298695797815"},{"line1":"1 30937U 99025BAB 22221.34450497  .00000088  00000-0  95948-4 0  9997","line2":"2 30937  99.2651 263.6147 0076255 142.4849 347.2393 13.95072975786833"},{"line1":"1 30938U 99025BAC 22221.53503419  .00000323  00000-0  18013-3 0  9991","line2":"2 30938  98.6903 251.7950 0046570 258.8403 258.7240 14.17113971798086"},{"line1":"1 30940U 99025BAE 22219.90822979  .00000462  00000-0  30665-3 0  9998","line2":"2 30940  98.7005 257.7422 0041638 214.6981 271.6378 14.05696495789466"},{"line1":"1 30941U 99025BAF 22221.08346555  .00001479  00000-0  75649-3 0  9992","line2":"2 30941  98.6183  92.7033 0037487 268.3969  91.2912 14.16697298792522"},{"line1":"1 30942U 99025BAG 22221.31461565  .00000220  00000-0  12927-3 0  9991","line2":"2 30942  98.6938 239.0389 0140765 354.1096  18.3780 14.12759716793872"},{"line1":"1 30943U 99025BAH 22221.31383803  .00000318  00000-0  23113-3 0  9997","line2":"2 30943  98.9021 252.6596 0050320 236.0479 123.5899 14.02872363786077"},{"line1":"1 30944U 99025BAJ 22221.18713197  .00000216  00000-0  61651-4 0  9993","line2":"2 30944  98.8722 191.0352 0156232 180.9923 192.3437 14.49110564813657"},{"line1":"1 30945U 99025BAK 22217.72434942  .00000934  00000-0  51329-3 0  9994","line2":"2 30945  99.3243 138.4772 0035960 264.9051 124.7091 14.14080828790416"},{"line1":"1 30946U 99025BAL 22221.01953359  .00000698  00000-0  22168-3 0  9996","line2":"2 30946  99.1228 241.3868 0099562 213.5983 174.1215 14.40713840807210"},{"line1":"1 30947U 99025BAM 22221.50598168  .00000406  00000-0  15202-3 0  9992","line2":"2 30947  98.9528  57.1046 0100494 241.9454 117.1539 14.34709554809631"},{"line1":"1 30949U 99025BAP 22221.27451597  .00000228  00000-0  13785-3 0  9998","line2":"2 30949  98.6880 235.7422 0119505 191.3429 231.6169 14.12175045792669"},{"line1":"1 30951U 99025BAR 22221.02285015  .00002847  00000-0  54446-3 0  9992","line2":"2 30951  99.8546 150.1824 0125745 346.9151  71.2101 14.60002952816494"},{"line1":"1 30954U 99025BAU 22221.14841815  .00000733  00000-0  42229-3 0  9992","line2":"2 30954  98.6551 345.1888 0142607  56.1821  67.4539 14.07017783791657"},{"line1":"1 30955U 99025BAV 22214.46198433  .00001222  00000-0  65837-3 0  9995","line2":"2 30955  98.6945  84.8259 0054276  28.6501 331.7636 14.13829484412827"},{"line1":"1 30956U 99025BAW 22221.08880884  .00000712  00000-0  43553-3 0  9994","line2":"2 30956  98.8680 261.9418 0052953 197.8970 189.7735 14.08405427790797"},{"line1":"1 30957U 99025BAX 22221.35482513  .00051084  00000-0  45544-2 0  9991","line2":"2 30957  99.0743 355.6212 0041706   9.8686 350.3340 14.95114156817109"},{"line1":"1 30958U 99025BAY 22213.51860450  .00002842  00000-0  88568-3 0  9993","line2":"2 30958  98.0148 113.1909 0131706  60.4958 300.9291 14.36710335446978"},{"line1":"1 30959U 99025BAZ 22218.72956552  .00001357  00000-0  66423-3 0  9997","line2":"2 30959  99.7166  19.5226 0070605  60.1770 300.6397 14.18518597429361"},{"line1":"1 30960U 99025BBA 22215.26568315  .00000544  00000-0  11450-3 0  9998","line2":"2 30960  99.0794 216.7501 0256150 269.3414  87.8423 14.46120376808561"},{"line1":"1 30961U 99025BBB 22221.14805448  .00001865  00000-0  44083-3 0  9999","line2":"2 30961  98.9262 194.1139 0144695 355.2349   4.7456 14.49310105471764"},{"line1":"1 30964U 99025BBE 22221.04036061  .00000835  00000-0  61709-3 0  9998","line2":"2 30964  98.6318 249.3516 0156416  27.4196   2.0449 13.92244191783521"},{"line1":"1 30966U 99025BBG 22219.80282498  .00013619  00000-0  15547-2 0  9990","line2":"2 30966  99.1115  64.7844 0067379 115.9385 299.8509 14.84575418486084"},{"line1":"1 30967U 99025BBH 22220.95655405  .00000975  00000-0  27162-3 0  9999","line2":"2 30967  98.7821 104.5721 0115629 332.7039  26.8105 14.44995807813086"},{"line1":"1 30971U 99025BBM 22221.44966736  .00001265  00000-0  22827-3 0  9997","line2":"2 30971  99.1911 108.5585 0204284 310.7182 226.1925 14.56120241818590"},{"line1":"1 30972U 99025BBN 22221.20803818  .00003931  00000-0  15674-2 0  9996","line2":"2 30972  98.9379 308.2912 0024797 182.7551 177.3497 14.28962815798863"},{"line1":"1 30973U 99025BBP 21067.23161498  .00000631  00000-0  34613-3 0  9997","line2":"2 30973  99.7677 169.3375 0105488  84.5598 276.8205 14.13122784720280"},{"line1":"1 30974U 99025BBQ 22219.83803914  .00013215  00000-0  21361-2 0  9997","line2":"2 30974  98.9539 231.0194 0051389 343.5922  16.3616 14.70598442815025"},{"line1":"1 30975U 99025BBR 22221.26603042  .00002752  00000-0  99607-3 0  9991","line2":"2 30975  99.0641  17.2167 0211778 233.0101 125.1527 14.22647697796053"},{"line1":"1 30976U 99025BBS 22221.33324349  .00006150  00000-0  24820-2 0  9990","line2":"2 30976  99.1708 354.3315 0164831 234.0645 124.5142 14.21180207472437"},{"line1":"1 30977U 99025BBT 22220.66071851  .00000672  00000-0  21148-3 0  9997","line2":"2 30977  98.9749 167.6054 0121977 201.2945 286.4713 14.39817609809111"}]